[
    {
        "Altitude(m)": 605459.0152284615,
        "Argument of Periapsis(deg)": 0.0,
        "Eccentricity": 0.0,
        "Inclination(deg)": 60.0,
        "Latitude(deg)": 27.98816994280273,
        "Longitude(deg)": -137.20137265093965,
        "Mean Anomaly(deg)": 32.72730000000001,
        "RAAN(deg)": 305.0,
        "Satellite Name": "Test1 1344",
        "Satellite Number": 1344,
        "Semi-Major Axis(m)": 6980739.136638005,
        "Time(s)": 0
    },
    {
        "Altitude(m)": 605535.8059286311,
        "Argument of Periapsis(deg)": 0.00010418945913296404,
        "Eccentricity": 0.0,
        "Inclination(deg)": 60.0,
        "Latitude(deg)": 28.501298952909938,
        "Longitude(deg)": -136.844426797374,
        "Mean Anomaly(deg)": 33.34740614546182,
        "RAAN(deg)": 304.99957995086027,
        "Satellite Name": "Test1 1344",
        "Satellite Number": 1344,
        "Semi-Major Axis(m)": 6980739.136638005,
        "Time(s)": 10
    }
]